[{"OBJECT_NAME":"STARLINK-32363","OBJECT_ID":"2024-193T","EPOCH":"2026-03-09T10:41:14.894592","MEAN_MOTION":15.30190023,"ECCENTRICITY":0.00012755,"INCLINATION":53.1608,"RA_OF_ASC_NODE":91.8252,"ARG_OF_PERICENTER":89.8834,"MEAN_ANOMALY":270.2313,"EPHEMERIS_TYPE":0,"CLASSIFICATION_TYPE":"U","NORAD_CAT_ID":61678,"ELEMENT_SET_NO":999,"REV_AT_EPOCH":7649,"BSTAR":1.6649099e-5,"MEAN_MOTION_DOT":1.34e-6,"MEAN_MOTION_DDOT":0},{"OBJECT_NAME":"SCS-01 H","OBJECT_ID":"2025-100H","EPOCH":"2026-03-09T23:19:05.376864","MEAN_MOTION":15.31767757,"ECCENTRICITY":0.00071581,"INCLINATION":97.3749,"RA_OF_ASC_NODE":145.8085,"ARG_OF_PERICENTER":277.8492,"MEAN_ANOMALY":82.1937,"EPHEMERIS_TYPE":0,"CLASSIFICATION_TYPE":"U","NORAD_CAT_ID":63989,"ELEMENT_SET_NO":999,"REV_AT_EPOCH":4566,"BSTAR":0.0011436254,"MEAN_MOTION_DOT":0.00035149,"MEAN_MOTION_DDOT":0}]
